STARLINK-34542          
1 65890U 25224J   26068.05374502  .00016208  00000+0  55824-3 0  9994
2 65890  53.1620  14.5417 0001104  84.9948 275.1179 15.30194591 24777
KUIPER-00209            
1 67776U 26030N   26068.61786546  .00035298  00000+0  11963-2 0  9997
2 67776  51.8838 220.0775 0012191  59.1967 301.0215 15.30161950  5077
